KUIPER-00053            
1 64513U 25134P   25214.78349782  .00016065  00000+0  45051-3 0  9991
2 64513  51.8772 136.2784 0001917 231.2830 128.7985 15.36732327  6981
KUIPER-00054            
1 64514U 25134Q   25214.78871094  .00028073  00000+0  78535-3 0  9993
2 64514  51.8753 136.3116 0002519 237.3506 122.7238 15.36441040  7386
KUIPER-00055            
1 64515U 25134R   25214.77196519  .00043109  00000+0  11706-2 0  9998
2 64515  51.8772 136.2086 0000474  55.4402 304.6629 15.37158919  7291
KUIPER-00056            
1 64516U 25134S   25213.29839266  .00009476  00000+0  27512-3 0  9990
2 64516  51.8730 143.5683 0002442 238.1794 121.8954 15.36179869  6757
KUIPER-00057            
1 64517U 25134T   25214.36158273  .00024896  00000+0  72785-3 0  9997
2 64517  51.8688 138.6764 0006525 246.1704 113.8598 15.35113314  7377
KUIPER-00058            
1 64518U 25134U   25214.02282191  .00029383  00000+0  83478-3 0  9995
2 64518  51.8708 140.1688 0004948 239.4814 120.5684 15.35928014  7325
KUIPER-00059            
1 64519U 25134V   25214.05880365  .00030250  00000+0  82724-3 0  9994
2 64519  51.8775 139.6699 0001359 184.3195 175.7780 15.37110343  7338
KUIPER-00060            
1 64520U 25134W   25213.80432471  .00049603  00000+0  13548-2 0  9998
2 64520  51.8751 140.9672 0001819 197.8152 162.2771 15.36915239  7284
