<?xml version="1.0" encoding="UTF-8"?>
<ndm xmlns:xsi="http://www.w3.org/2001/XMLSchema-instance" xsi:noNamespaceSchemaLocation="https://sanaregistry.org/r/ndmxml_unqualified/ndmxml-2.0.0-master-2.0.xsd">
<omm id="CCSDS_OMM_VERS" version="2.0">
<header><CREATION_DATE/><ORIGINATOR/></header><body><segment><metadata><OBJECT_NAME>KUIPER-00053</OBJECT_NAME><OBJECT_ID>2025-134P</OBJECT_ID><CENTER_NAME>EARTH</CENTER_NAME><REF_FRAME>TEME</REF_FRAME><TIME_SYSTEM>UTC</TIME_SYSTEM><MEAN_ELEMENT_THEORY>SGP4</MEAN_ELEMENT_THEORY></metadata><data><meanElements><EPOCH>2025-08-02T18:48:14.211648</EPOCH><MEAN_MOTION>15.36732327</MEAN_MOTION><ECCENTRICITY>.0001917</ECCENTRICITY><INCLINATION>51.8772</INCLINATION><RA_OF_ASC_NODE>136.2784</RA_OF_ASC_NODE><ARG_OF_PERICENTER>231.2830</ARG_OF_PERICENTER><MEAN_ANOMALY>128.7985</MEAN_ANOMALY></meanElements><tleParameters><EPHEMERIS_TYPE>0</EPHEMERIS_TYPE><CLASSIFICATION_TYPE>U</CLASSIFICATION_TYPE><NORAD_CAT_ID>64513</NORAD_CAT_ID><ELEMENT_SET_NO>999</ELEMENT_SET_NO><REV_AT_EPOCH>698</REV_AT_EPOCH><BSTAR>.45051E-3</BSTAR><MEAN_MOTION_DOT>.16065E-3</MEAN_MOTION_DOT><MEAN_MOTION_DDOT>0</MEAN_MOTION_DDOT></tleParameters></data></segment></body></omm>
<omm id="CCSDS_OMM_VERS" version="2.0">
<header><CREATION_DATE/><ORIGINATOR/></header><body><segment><metadata><OBJECT_NAME>KUIPER-00054</OBJECT_NAME><OBJECT_ID>2025-134Q</OBJECT_ID><CENTER_NAME>EARTH</CENTER_NAME><REF_FRAME>TEME</REF_FRAME><TIME_SYSTEM>UTC</TIME_SYSTEM><MEAN_ELEMENT_THEORY>SGP4</MEAN_ELEMENT_THEORY></metadata><data><meanElements><EPOCH>2025-08-02T18:55:44.625216</EPOCH><MEAN_MOTION>15.36441040</MEAN_MOTION><ECCENTRICITY>.0002519</ECCENTRICITY><INCLINATION>51.8753</INCLINATION><RA_OF_ASC_NODE>136.3116</RA_OF_ASC_NODE><ARG_OF_PERICENTER>237.3506</ARG_OF_PERICENTER><MEAN_ANOMALY>122.7238</MEAN_ANOMALY></meanElements><tleParameters><EPHEMERIS_TYPE>0</EPHEMERIS_TYPE><CLASSIFICATION_TYPE>U</CLASSIFICATION_TYPE><NORAD_CAT_ID>64514</NORAD_CAT_ID><ELEMENT_SET_NO>999</ELEMENT_SET_NO><REV_AT_EPOCH>738</REV_AT_EPOCH><BSTAR>.78535E-3</BSTAR><MEAN_MOTION_DOT>.28073E-3</MEAN_MOTION_DOT><MEAN_MOTION_DDOT>0</MEAN_MOTION_DDOT></tleParameters></data></segment></body></omm>
<omm id="CCSDS_OMM_VERS" version="2.0">
<header><CREATION_DATE/><ORIGINATOR/></header><body><segment><metadata><OBJECT_NAME>KUIPER-00055</OBJECT_NAME><OBJECT_ID>2025-134R</OBJECT_ID><CENTER_NAME>EARTH</CENTER_NAME><REF_FRAME>TEME</REF_FRAME><TIME_SYSTEM>UTC</TIME_SYSTEM><MEAN_ELEMENT_THEORY>SGP4</MEAN_ELEMENT_THEORY></metadata><data><meanElements><EPOCH>2025-08-02T18:31:37.792416</EPOCH><MEAN_MOTION>15.37158919</MEAN_MOTION><ECCENTRICITY>.0000474</ECCENTRICITY><INCLINATION>51.8772</INCLINATION><RA_OF_ASC_NODE>136.2086</RA_OF_ASC_NODE><ARG_OF_PERICENTER>55.4402</ARG_OF_PERICENTER><MEAN_ANOMALY>304.6629</MEAN_ANOMALY></meanElements><tleParameters><EPHEMERIS_TYPE>0</EPHEMERIS_TYPE><CLASSIFICATION_TYPE>U</CLASSIFICATION_TYPE><NORAD_CAT_ID>64515</NORAD_CAT_ID><ELEMENT_SET_NO>999</ELEMENT_SET_NO><REV_AT_EPOCH>729</REV_AT_EPOCH><BSTAR>.11706E-2</BSTAR><MEAN_MOTION_DOT>.43109E-3</MEAN_MOTION_DOT><MEAN_MOTION_DDOT>0</MEAN_MOTION_DDOT></tleParameters></data></segment></body></omm>
<omm id="CCSDS_OMM_VERS" version="2.0">
<header><CREATION_DATE/><ORIGINATOR/></header><body><segment><metadata><OBJECT_NAME>KUIPER-00056</OBJECT_NAME><OBJECT_ID>2025-134S</OBJECT_ID><CENTER_NAME>EARTH</CENTER_NAME><REF_FRAME>TEME</REF_FRAME><TIME_SYSTEM>UTC</TIME_SYSTEM><MEAN_ELEMENT_THEORY>SGP4</MEAN_ELEMENT_THEORY></metadata><data><meanElements><EPOCH>2025-08-01T07:09:41.125824</EPOCH><MEAN_MOTION>15.36179869</MEAN_MOTION><ECCENTRICITY>.0002442</ECCENTRICITY><INCLINATION>51.8730</INCLINATION><RA_OF_ASC_NODE>143.5683</RA_OF_ASC_NODE><ARG_OF_PERICENTER>238.1794</ARG_OF_PERICENTER><MEAN_ANOMALY>121.8954</MEAN_ANOMALY></meanElements><tleParameters><EPHEMERIS_TYPE>0</EPHEMERIS_TYPE><CLASSIFICATION_TYPE>U</CLASSIFICATION_TYPE><NORAD_CAT_ID>64516</NORAD_CAT_ID><ELEMENT_SET_NO>999</ELEMENT_SET_NO><REV_AT_EPOCH>675</REV_AT_EPOCH><BSTAR>.27512E-3</BSTAR><MEAN_MOTION_DOT>.9476E-4</MEAN_MOTION_DOT><MEAN_MOTION_DDOT>0</MEAN_MOTION_DDOT></tleParameters></data></segment></body></omm>
<omm id="CCSDS_OMM_VERS" version="2.0">
<header><CREATION_DATE/><ORIGINATOR/></header><body><segment><metadata><OBJECT_NAME>KUIPER-00057</OBJECT_NAME><OBJECT_ID>2025-134T</OBJECT_ID><CENTER_NAME>EARTH</CENTER_NAME><REF_FRAME>TEME</REF_FRAME><TIME_SYSTEM>UTC</TIME_SYSTEM><MEAN_ELEMENT_THEORY>SGP4</MEAN_ELEMENT_THEORY></metadata><data><meanElements><EPOCH>2025-08-02T08:40:40.747872</EPOCH><MEAN_MOTION>15.35113314</MEAN_MOTION><ECCENTRICITY>.0006525</ECCENTRICITY><INCLINATION>51.8688</INCLINATION><RA_OF_ASC_NODE>138.6764</RA_OF_ASC_NODE><ARG_OF_PERICENTER>246.1704</ARG_OF_PERICENTER><MEAN_ANOMALY>113.8598</MEAN_ANOMALY></meanElements><tleParameters><EPHEMERIS_TYPE>0</EPHEMERIS_TYPE><CLASSIFICATION_TYPE>U</CLASSIFICATION_TYPE><NORAD_CAT_ID>64517</NORAD_CAT_ID><ELEMENT_SET_NO>999</ELEMENT_SET_NO><REV_AT_EPOCH>737</REV_AT_EPOCH><BSTAR>.72785E-3</BSTAR><MEAN_MOTION_DOT>.24896E-3</MEAN_MOTION_DOT><MEAN_MOTION_DDOT>0</MEAN_MOTION_DDOT></tleParameters></data></segment></body></omm>
<omm id="CCSDS_OMM_VERS" version="2.0">
<header><CREATION_DATE/><ORIGINATOR/></header><body><segment><metadata><OBJECT_NAME>KUIPER-00058</OBJECT_NAME><OBJECT_ID>2025-134U</OBJECT_ID><CENTER_NAME>EARTH</CENTER_NAME><REF_FRAME>TEME</REF_FRAME><TIME_SYSTEM>UTC</TIME_SYSTEM><MEAN_ELEMENT_THEORY>SGP4</MEAN_ELEMENT_THEORY></metadata><data><meanElements><EPOCH>2025-08-02T00:32:51.813024</EPOCH><MEAN_MOTION>15.35928014</MEAN_MOTION><ECCENTRICITY>.0004948</ECCENTRICITY><INCLINATION>51.8708</INCLINATION><RA_OF_ASC_NODE>140.1688</RA_OF_ASC_NODE><ARG_OF_PERICENTER>239.4814</ARG_OF_PERICENTER><MEAN_ANOMALY>120.5684</MEAN_ANOMALY></meanElements><tleParameters><EPHEMERIS_TYPE>0</EPHEMERIS_TYPE><CLASSIFICATION_TYPE>U</CLASSIFICATION_TYPE><NORAD_CAT_ID>64518</NORAD_CAT_ID><ELEMENT_SET_NO>999</ELEMENT_SET_NO><REV_AT_EPOCH>732</REV_AT_EPOCH><BSTAR>.83478E-3</BSTAR><MEAN_MOTION_DOT>.29383E-3</MEAN_MOTION_DOT><MEAN_MOTION_DDOT>0</MEAN_MOTION_DDOT></tleParameters></data></segment></body></omm>
<omm id="CCSDS_OMM_VERS" version="2.0">
<header><CREATION_DATE/><ORIGINATOR/></header><body><segment><metadata><OBJECT_NAME>KUIPER-00059</OBJECT_NAME><OBJECT_ID>2025-134V</OBJECT_ID><CENTER_NAME>EARTH</CENTER_NAME><REF_FRAME>TEME</REF_FRAME><TIME_SYSTEM>UTC</TIME_SYSTEM><MEAN_ELEMENT_THEORY>SGP4</MEAN_ELEMENT_THEORY></metadata><data><meanElements><EPOCH>2025-08-02T01:24:40.635360</EPOCH><MEAN_MOTION>15.37110343</MEAN_MOTION><ECCENTRICITY>.0001359</ECCENTRICITY><INCLINATION>51.8775</INCLINATION><RA_OF_ASC_NODE>139.6699</RA_OF_ASC_NODE><ARG_OF_PERICENTER>184.3195</ARG_OF_PERICENTER><MEAN_ANOMALY>175.7780</MEAN_ANOMALY></meanElements><tleParameters><EPHEMERIS_TYPE>0</EPHEMERIS_TYPE><CLASSIFICATION_TYPE>U</CLASSIFICATION_TYPE><NORAD_CAT_ID>64519</NORAD_CAT_ID><ELEMENT_SET_NO>999</ELEMENT_SET_NO><REV_AT_EPOCH>733</REV_AT_EPOCH><BSTAR>.82724E-3</BSTAR><MEAN_MOTION_DOT>.3025E-3</MEAN_MOTION_DOT><MEAN_MOTION_DDOT>0</MEAN_MOTION_DDOT></tleParameters></data></segment></body></omm>
<omm id="CCSDS_OMM_VERS" version="2.0">
<header><CREATION_DATE/><ORIGINATOR/></header><body><segment><metadata><OBJECT_NAME>KUIPER-00060</OBJECT_NAME><OBJECT_ID>2025-134W</OBJECT_ID><CENTER_NAME>EARTH</CENTER_NAME><REF_FRAME>TEME</REF_FRAME><TIME_SYSTEM>UTC</TIME_SYSTEM><MEAN_ELEMENT_THEORY>SGP4</MEAN_ELEMENT_THEORY></metadata><data><meanElements><EPOCH>2025-08-01T19:18:13.654944</EPOCH><MEAN_MOTION>15.36915239</MEAN_MOTION><ECCENTRICITY>.0001819</ECCENTRICITY><INCLINATION>51.8751</INCLINATION><RA_OF_ASC_NODE>140.9672</RA_OF_ASC_NODE><ARG_OF_PERICENTER>197.8152</ARG_OF_PERICENTER><MEAN_ANOMALY>162.2771</MEAN_ANOMALY></meanElements><tleParameters><EPHEMERIS_TYPE>0</EPHEMERIS_TYPE><CLASSIFICATION_TYPE>U</CLASSIFICATION_TYPE><NORAD_CAT_ID>64520</NORAD_CAT_ID><ELEMENT_SET_NO>999</ELEMENT_SET_NO><REV_AT_EPOCH>728</REV_AT_EPOCH><BSTAR>.13548E-2</BSTAR><MEAN_MOTION_DOT>.49603E-3</MEAN_MOTION_DOT><MEAN_MOTION_DDOT>0</MEAN_MOTION_DDOT></tleParameters></data></segment></body></omm>

</ndm>
